H1 CPF  1  DLR 2021 06 11 10  6622 technosat            
H2  1704205 6203    42829 2021 06 11 00 00 00 2021 06 18 00 00 00    60 1 1  0 0 0
H9
10 0 59379  21600.000000  0        787220.371       -507473.954       6896881.556
10 0 59379  21660.000000  0        447371.459       -814413.173       6897277.647
10 0 59379  21720.000000  0        102980.148      -1114926.703       6868399.248
10 0 59379  21780.000000  0       -244440.620      -1407713.723       6810361.009
10 0 59379  21840.000000  0       -593353.183      -1691518.570       6723400.897
10 0 59379  21900.000000  0       -942201.992      -1965136.191       6607879.309
10 0 59379  21960.000000  0      -1289420.514      -2227417.312       6464277.663
10 0 59379  22020.000000  0      -1633438.197      -2477273.312       6293196.607
10 0 59379  22080.000000  0      -1972687.579      -2713680.847       6095353.808
10 0 59379  22140.000000  0      -2305611.503      -2935686.223       5871581.245
10 0 59379  22200.000000  0      -2630670.424      -3142409.481       5622821.997
10 0 59379  22260.000000  0      -2946349.781      -3333048.103       5350126.469
10 0 59379  22320.000000  0      -3251167.292      -3506880.300       5054648.045
10 0 59379  22380.000000  0      -3543680.095      -3663267.906       4737638.289
10 0 59379  22440.000000  0      -3822491.760      -3801658.875       4400441.734
10 0 59379  22500.000000  0      -4086259.179      -3921589.376       4044490.237
10 0 59379  22560.000000  0      -4333699.233      -4022685.444       3671296.891
10 0 59379  22620.000000  0      -4563595.229      -4104664.188       3282449.610
10 0 59379  22680.000000  0      -4774803.136      -4167334.597       2879604.337
10 0 59379  22740.000000  0      -4966257.523      -4210597.889       2464477.827
10 0 59379  22800.000000  0      -5136977.125      -4234447.356       2038840.099
10 0 59379  22860.000000  0      -5286069.988      -4238967.714       1604506.618
10 0 59379  22920.000000  0      -5412738.216      -4224333.988       1163330.288
10 0 59379  22980.000000  0      -5516282.294      -4190809.967        717193.231
10 0 59379  23040.000000  0      -5596104.901      -4138746.181        267998.405
10 0 59379  23100.000000  0      -5651714.228      -4068577.450       -182338.863
10 0 59379  23160.000000  0      -5682726.797      -3980820.021       -631899.420
10 0 59379  23220.000000  0      -5688869.705      -3876068.277      -1078768.885
10 0 59379  23280.000000  0      -5669982.263      -3754991.012      -1521046.191
10 0 59379  23340.000000  0      -5626017.042      -3618327.352      -1956851.962
10 0 59379  23400.000000  0      -5557040.370      -3466882.385      -2384336.709
10 0 59379  23460.000000  0      -5463232.325      -3301522.530      -2801688.877
10 0 59379  23520.000000  0      -5344886.092      -3123170.599      -3207142.684
10 0 59379  23580.000000  0      -5202406.822      -2932800.643      -3598985.625
10 0 59379  23640.000000  0      -5036309.966      -2731432.610      -3975565.719
10 0 59379  23700.000000  0      -4847219.072      -2520126.842      -4335298.438
10 0 59379  23760.000000  0      -4635863.060      -2299978.456      -4676673.243
10 0 59379  23820.000000  0      -4403073.045      -2072111.643      -4998259.744
10 0 59379  23880.000000  0      -4149778.696      -1837673.892      -5298713.473
10 0 59379  23940.000000  0      -3877004.165      -1597830.175      -5576781.207
10 0 59379  24000.000000  0      -3585863.617      -1353757.149      -5831305.837
10 0 59379  24060.000000  0      -3277556.404      -1106637.405      -6061230.797
10 0 59379  24120.000000  0      -2953361.887       -857653.780      -6265604.063
10 0 59379  24180.000000  0      -2614633.931       -607983.765      -6443581.686
10 0 59379  24240.000000  0      -2262795.087       -358794.045      -6594430.868
10 0 59379  24300.000000  0      -1899330.495       -111235.165      -6717532.536
10 0 59379  24360.000000  0      -1525781.624        133563.604      -6812383.424
10 0 59379  24420.000000  0      -1143739.848        374499.215      -6878597.820
10 0 59379  24480.000000  0       -754839.764        610499.689      -6915908.915
10 0 59379  24540.000000  0       -360752.310        840528.763      -6924169.612
10 0 59379  24600.000000  0         36822.200       1063590.252      -6903352.875
10 0 59379  24660.000000  0        436161.137       1278732.127      -6853551.783
10 0 59379  24720.000000  0        835526.855       1485050.474      -6774979.258
10 0 59379  24780.000000  0       1233174.173       1681693.239      -6667967.137
10 0 59379  24840.000000  0       1627357.747       1867863.630      -6532964.745
10 0 59379  24900.000000  0       2016339.505       2042823.259      -6370537.228
10 0 59379  24960.000000  0       2398396.241       2205895.027      -6181363.376
10 0 59379  25020.000000  0       2771827.069       2356465.683      -5966232.907
10 0 59379  25080.000000  0       3134960.787       2493988.067      -5726043.441
10 0 59379  25140.000000  0       3486163.242       2617983.078      -5461797.123
10 0 59379  25200.000000  0       3823844.683       2728041.346      -5174596.812
10 0 59379  25260.000000  0       4146466.985       2823824.591      -4865641.777
10 0 59379  25320.000000  0       4452550.704       2905066.635      -4536223.006
10 0 59379  25380.000000  0       4740681.979       2971574.047      -4187718.090
10 0 59379  25440.000000  0       5009519.131       3023226.469      -3821585.690
10 0 59379  25500.000000  0       5257799.018       3059976.578      -3439359.705
10 0 59379  25560.000000  0       5484343.113       3081849.733      -3042643.129
10 0 59379  25620.000000  0       5688063.365       3088943.344      -2633101.560
10 0 59379  25680.000000  0       5867967.692       3081425.799      -2212456.229
10 0 59379  25740.000000  0       6023164.944       3059535.002      -1782476.827
10 0 59379  25800.000000  0       6152869.489       3023576.608      -1344974.116
10 0 59379  25860.000000  0       6256405.363       2973921.961       -901792.326
10 0 59379  25920.000000  0       6333209.972       2911005.688       -454801.312
10 0 59379  25980.000000  0       6382837.217       2835322.933         -5888.514
10 0 59379  26040.000000  0       6404960.037       2747426.241        443049.124
10 0 59379  26100.000000  0       6399372.425       2647922.229        890113.215
10 0 59379  26160.000000  0       6365990.957       2537468.087       1333412.067
10 0 59379  26220.000000  0       6304855.745       2416767.804       1771068.895
10 0 59379  26280.000000  0       6216130.755       2286568.108       2201229.973
10 0 59379  26340.000000  0       6100103.514       2147654.186       2622072.687
10 0 59379  26400.000000  0       5957184.193       2000845.268       3031813.385
10 0 59379  26460.000000  0       5787904.173       1846990.126       3428715.088
10 0 59379  26520.000000  0       5592913.985       1686962.370       3811095.011
10 0 59379  26580.000000  0       5372980.643       1521655.655       4177331.775
10 0 59379  26640.000000  0       5128984.441       1351978.874       4525872.257
10 0 59379  26700.000000  0       4861915.354       1178851.377       4855238.121
10 0 59379  26760.000000  0       4572868.943       1003198.095       5164032.184
10 0 59379  26820.000000  0       4263041.642        825944.668       5450944.359
10 0 59379  26880.000000  0       3933725.602        648012.668       5714757.183
10 0 59379  26940.000000  0       3586303.049        470314.884       5954350.868
10 0 59379  27000.000000  0       3222240.350        293750.747       6168707.837
10 0 59379  27060.000000  0       2843081.796        119201.904       6356916.940
10 0 59379  27120.000000  0       2450442.990        -52472.130       6518177.278
10 0 59379  27180.000000  0       2046003.909       -220438.143       6651801.528
10 0 59379  27240.000000  0       1631501.710       -383893.230       6757218.869
10 0 59379  27300.000000  0       1208723.169       -542068.647       6833977.446
10 0 59379  27360.000000  0        779496.886       -694233.429       6881746.200
10 0 59379  27420.000000  0        345685.431       -839697.743       6900316.262
10 0 59379  27480.000000  0        -90822.767       -977816.049       6889601.942
10 0 59379  27540.000000  0       -528121.629      -1107990.010       6849641.136
10 0 59379  27600.000000  0       -964295.759      -1229671.142       6780595.296
10 0 59379  27660.000000  0      -1397428.847      -1342363.173       6682748.857
10 0 59379  27720.000000  0      -1825612.078      -1445624.088       6556508.189
10 0 59379  27780.000000  0      -2246952.534      -1539067.883       6402400.089
10 0 59379  27840.000000  0      -2659581.578      -1622366.034       6221069.882
10 0 59379  27900.000000  0      -3061663.332      -1695248.705       6013279.090
10 0 59379  27960.000000  0      -3451403.146      -1757505.665       5779902.457
10 0 59379  28020.000000  0      -3827055.837      -1808986.889       5521924.389
10 0 59379  28080.000000  0      -4186933.737      -1849602.840       5240434.992
10 0 59379  28140.000000  0      -4529414.610      -1879324.407       4936625.624
10 0 59379  28200.000000  0      -4852949.289      -1898182.529       4611783.925
10 0 59379  28260.000000  0      -5156068.989      -1906267.471       4267288.396
10 0 59379  28320.000000  0      -5437392.293      -1903727.768       3904602.587
10 0 59379  28380.000000  0      -5695631.768      -1890768.859       3525268.891
10 0 59379  28440.000000  0      -5929600.190      -1867651.433       3130901.960
10 0 59379  28500.000000  0      -6138216.350      -1834689.489       2723181.798
10 0 59379  28560.000000  0      -6320510.475      -1792248.132       2303846.495
10 0 59379  28620.000000  0      -6475629.133      -1740741.052       1874684.526
10 0 59379  28680.000000  0      -6602839.436      -1680627.717       1437526.747
10 0 59379  28740.000000  0      -6701532.631      -1612410.328        994238.307
99
